LANDSAT 9               
1 49260U 21088A   23200.78038070  .00000564  00000+0  13523-3 0  9991
2 49260  98.2286 270.2792 0001225 101.6924 258.4412 14.57114502 96135
